[{"OBJECT_NAME":"PRAETORIAN SDA_621","OBJECT_ID":"2025-203V","EPOCH":"2026-03-09T14:20:07.156320","MEAN_MOTION":13.83787478,"ECCENTRICITY":0.0008673,"INCLINATION":81.2989,"RA_OF_ASC_NODE":102.9072,"ARG_OF_PERICENTER":96.3239,"MEAN_ANOMALY":263.8905,"EPHEMERIS_TYPE":0,"CLASSIFICATION_TYPE":"U","NORAD_CAT_ID":65584,"ELEMENT_SET_NO":999,"REV_AT_EPOCH":2492,"BSTAR":5.4754e-5,"MEAN_MOTION_DOT":7.3e-7,"MEAN_MOTION_DDOT":0},{"OBJECT_NAME":"DELTA 1 DEB","OBJECT_ID":"1978-026G","EPOCH":"2026-03-09T21:00:04.733856","MEAN_MOTION":14.15955145,"ECCENTRICITY":0.01594881,"INCLINATION":98.7484,"RA_OF_ASC_NODE":17.2698,"ARG_OF_PERICENTER":108.9497,"MEAN_ANOMALY":320.3759,"EPHEMERIS_TYPE":0,"CLASSIFICATION_TYPE":"U","NORAD_CAT_ID":12167,"ELEMENT_SET_NO":999,"REV_AT_EPOCH":31783,"BSTAR":0.00033296302,"MEAN_MOTION_DOT":7.01e-6,"MEAN_MOTION_DDOT":0}]
